[{"OBJECT_NAME":"STARLINK-31192","OBJECT_ID":"2024-012H","EPOCH":"2026-03-09T07:22:04.181376","MEAN_MOTION":15.27584226,"ECCENTRICITY":0.0001036,"INCLINATION":43.0023,"RA_OF_ASC_NODE":167.7303,"ARG_OF_PERICENTER":197.527,"MEAN_ANOMALY":162.5546,"EPHEMERIS_TYPE":0,"CLASSIFICATION_TYPE":"U","NORAD_CAT_ID":58794,"ELEMENT_SET_NO":999,"REV_AT_EPOCH":12117,"BSTAR":-0.00017110428,"MEAN_MOTION_DOT":-4.968e-5,"MEAN_MOTION_DDOT":0},{"OBJECT_NAME":"TRANSPORTER-14 OBJECT AC","OBJECT_ID":"2025-135AC","EPOCH":"2026-03-09T19:42:26.378496","MEAN_MOTION":15.26845403,"ECCENTRICITY":0.00010083,"INCLINATION":97.4518,"RA_OF_ASC_NODE":185.7428,"ARG_OF_PERICENTER":268.0523,"MEAN_ANOMALY":92.06,"EPHEMERIS_TYPE":0,"CLASSIFICATION_TYPE":"U","NORAD_CAT_ID":64554,"ELEMENT_SET_NO":999,"REV_AT_EPOCH":3982,"BSTAR":0.0009323368,"MEAN_MOTION_DOT":0.00024574,"MEAN_MOTION_DDOT":0}]
